STARLINK-4291           
1 52988U 22076C   26068.50907067  .00000486  00000+0  48661-4 0  9991
2 52988  53.2165  94.9284 0001419  87.4333 272.6821 15.08832472202816
2023-069B               
1 56732U 23069B   26068.54706144  .00006772  00000+0  42420-3 0  9992
2 56732  41.0081 274.4606 0011652 279.7432  80.2064 15.09579619155167
