[{"OBJECT_NAME":"STARLINK-4291","OBJECT_ID":"2022-076C","EPOCH":"2026-03-09T12:13:03.705888","MEAN_MOTION":15.08832472,"ECCENTRICITY":0.00014193,"INCLINATION":53.2165,"RA_OF_ASC_NODE":94.9284,"ARG_OF_PERICENTER":87.4333,"MEAN_ANOMALY":272.6821,"EPHEMERIS_TYPE":0,"CLASSIFICATION_TYPE":"U","NORAD_CAT_ID":52988,"ELEMENT_SET_NO":999,"REV_AT_EPOCH":20281,"BSTAR":4.8660881e-5,"MEAN_MOTION_DOT":4.86e-6,"MEAN_MOTION_DDOT":0},{"OBJECT_NAME":"OBJECT B","OBJECT_ID":"2023-069B","EPOCH":"2026-03-09T13:07:46.108416","MEAN_MOTION":15.09579619,"ECCENTRICITY":0.00116524,"INCLINATION":41.0081,"RA_OF_ASC_NODE":274.4606,"ARG_OF_PERICENTER":279.7432,"MEAN_ANOMALY":80.2064,"EPHEMERIS_TYPE":0,"CLASSIFICATION_TYPE":"U","NORAD_CAT_ID":56732,"ELEMENT_SET_NO":999,"REV_AT_EPOCH":15516,"BSTAR":0.00042419683,"MEAN_MOTION_DOT":6.772e-5,"MEAN_MOTION_DDOT":0}]
